satname,norad_id,inclination_deg,eccentricity,mean_motion_rev_per_day,perigee_km,apogee_km,l1,l2
STARLINK-1316,45415,53.1555,0.0006712,15.36795782,451.0049248455798,460.17852228409356,1 45415U 20019BH  26141.40561345  .00027264  00000+0  75479-3 0  9998,2 45415  53.1555 149.7961 0006712  17.5034 342.6200 15.36795782341152
STARLINK-1286,45417,53.0459,0.0001347,15.62081985,380.73344681461276,382.5545318131353,1 45417U 20019BK  26142.00003472  .00079134  00000+0  88444-3 0  9998,2 45417  53.0459 136.7821 0001347 107.6983 331.7912 15.62081985  5956
STARLINK-1308,45419,53.0467,0.000809,15.63605466,371.7872893803178,382.7175094285549,1 45419U 20019BM  26141.45664366  .00070862  00000+0  74662-3 0  9999,2 45419  53.0467 159.0686 0008090 350.5790   9.5071 15.63605466341014
STARLINK-1329,45531,53.0429,0.0004992,15.70783679,353.29403365033886,360.01805102380786,1 45531U 20025A   26141.84484727  .00048030  00000+0  38137-3 0  9994,2 45531  53.0429  81.7817 0004992  80.5216 279.6365 15.70783679336914
STARLINK-1338,45532,53.0443,0.0004609,15.65991633,367.2779470986452,373.4987377592961,1 45532U 20025B   26141.94246130  .00037741  00000+0  36610-3 0  9991,2 45532  53.0443  87.3099 0004609  54.6544 305.4901 15.65991633336847
STARLINK-1350,45535,53.0721,0.0001595,15.3781704,451.4763906408598,453.6553848620533,1 45535U 20025E   26141.03279376  .00009056  00000+0  25021-3 0  9994,2 45535  53.0721  52.9246 0001595  70.7998 289.3178 15.37817040337287
STARLINK-1362,45538,53.1579,0.0003783,15.35256937,457.5705008615705,462.74435442552567,1 45538U 20025H   26141.95365467 -.00118702  00000+0 -34605-2 0  9993,2 45538  53.1579 119.4332 0003783  70.0066 290.1344 15.35256937336416
STARLINK-1368,45540,53.1566,0.000489,15.35552157,455.93743080807053,462.6244255418251,1 45540U 20025K   26141.25143980  .00023023  00000+0  66550-3 0  9997,2 45540  53.1566 123.0957 0004890  57.0222 303.1251 15.35552157336299
STARLINK-1371,45542,53.0456,0.0006778,15.58823324,386.4732578094008,395.64958318822846,1 45542U 20025M   26141.58770554  .00064734  00000+0  82147-3 0  9992,2 45542  53.0456  97.9222 0006778  58.4997 301.6677 15.58823324336661
STARLINK-1372,45543,53.158,0.0004343,15.36101322,454.682437583685,460.62000323193115,1 45543U 20025N   26141.21598282  .00026758  00000+0  75798-3 0  9997,2 45543  53.1580 122.8266 0004343  47.9123 312.2249 15.36101322335392
STARLINK-1373,45544,53.0459,0.00043,15.67631101,362.78249467013757,368.582179299945,1 45544U 20025P   26141.15181386  .00040678  00000+0  36889-3 0  9999,2 45544  53.0459  96.6708 0004300  30.6279 329.4986 15.67631101336644
STARLINK-1327,45555,53.042,0.0005277,15.65349931,368.6703804540939,375.79472047765466,1 45555U 20025AA  26141.54965734  .00034294  00000+0  34188-3 0  9998,2 45555  53.0420  71.5700 0005277  36.3064 323.8308 15.65349931337021
STARLINK-1356,45564,53.0452,0.0003884,15.55379036,398.41800562167373,403.6840788928994,1 45564U 20025AK  26141.12253354  .00073395  00000+0  10574-2 0  9997,2 45564  53.0452  86.0688 0003884  38.4599 321.6688 15.55379036336787
STARLINK-1357,45565,53.0462,0.0007639,15.67273929,361.5544948765155,371.8592673580861,1 45565U 20025AL  26141.88243422  .00041555  00000+0  38181-3 0  9994,2 45565  53.0462  40.0752 0007639  72.5547 287.6303 15.67273929337508
STARLINK-1361,45567,53.0441,0.0001868,15.59242496,388.58392833115613,391.1124475973793,1 45567U 20025AN  26141.89116317  .00074293  00000+0  92669-3 0  9995,2 45567  53.0441  80.6662 0001868  46.1858 313.9309 15.59242496336938
STARLINK-1363,45568,53.0304,0.0004577,16.07043245,251.93091028155777,258.00285357507437,1 45568U 20025AP  26141.91643416  .00413780  92589-4  51923-3 0  9998,2 45568  53.0304  25.3580 0004577 236.9027 123.1566 16.07043245337694
STARLINK-1366,45569,53.0325,0.0002527,16.0014926,272.3240036782872,275.68599624506896,1 45569U 20025AQ  26142.00003472  .00292237  47050-4  55726-3 0  9992,2 45569  53.0325  27.1827 0002527 242.2212 164.1599 16.00149260  5679
STARLINK-1376,45570,53.1572,0.0005653,15.365058,452.58791526317236,460.3151010304837,1 45570U 20025AR  26141.58709847  .00036904  00000+0  10263-2 0  9997,2 45570  53.1572  97.5291 0005653  53.1765 306.9757 15.36505800336681
STARLINK-1320,45572,53.0455,0.0004105,15.81707977,322.8584580595607,328.3622346309112,1 45572U 20025AT  26141.77501679  .00091392  00000+0  44399-3 0  9993,2 45572  53.0455 341.6119 0004105 257.4058 102.6504 15.81707977338322
STARLINK-1321,45573,53.0444,0.0005674,15.60039971,383.7026664925661,391.38035846852927,1 45573U 20025AU  26141.07812534  .00038768  00000+0  47394-3 0  9998,2 45573  53.0444  68.6429 0005674  67.9750 292.1865 15.60039971336722
STARLINK-1331,45578,53.0472,0.0006213,15.60036862,383.34697972077265,391.7540230099685,1 45578U 20025AZ  26141.93252352  .00068527  00000+0  82986-3 0  9996,2 45578  53.0472  71.3537 0006213  51.4754 308.6814 15.60036862337073
STARLINK-1333,45580,53.1583,0.0003452,15.33554945,462.8537495730898,467.57840053610744,1 45580U 20025BB  26141.86167997  .00037893  00000+0  11573-2 0  9996,2 45580  53.1583  97.3884 0003452  77.9329 282.2060 15.33554945336713
STARLINK-1335,45581,53.1551,0.0004744,15.34988786,457.70933886222156,464.1982682166208,1 45581U 20025BC  26141.19252521  .00030085  00000+0  88117-3 0  9996,2 45581  53.1551  97.4381 0004744  65.7013 294.4485 15.34988786336645
STARLINK-1337,45582,53.0474,0.0007261,15.71745819,349.01916744696064,358.79544218641513,1 45582U 20025BD  26141.91615318  .00048132  00000+0  36681-3 0  9995,2 45582  53.0474  62.2068 0007261  58.8690 301.3039 15.71745819337184
STARLINK-1347,45586,53.0397,0.0004777,15.6650226,365.69866473970706,372.14480465483666,1 45586U 20025BH  26141.91033477  .00041235  00000+0  39123-3 0  9990,2 45586  53.0397  32.0487 0004777  86.5067 273.6494 15.66502260337605
STARLINK-1364,45589,53.0453,0.0005365,15.60883367,381.47567011786487,388.732627870736,1 45589U 20025BL  26141.53255411  .00049797  00000+0  58697-3 0  9993,2 45589  53.0453  70.5666 0005365  32.4422 327.6919 15.60883367337039
STARLINK-1365,45590,53.0467,0.0005351,15.56106973,395.31029105848756,402.56311533564985,1 45590U 20025BM  26141.86866845  .00070255  00000+0  98580-3 0  9998,2 45590  53.0467 101.8504 0005351  32.5751 327.5589 15.56106973336640
STARLINK-1443,45660,53.1359,0.0004762,15.30886029,469.90488426457523,476.43006664699897,1 45660U 20035D   26141.17477628  .00027222  00000+0  90821-3 0  9994,2 45660  53.1359  89.0204 0004762  46.2695 313.8699 15.30886029329840
STARLINK-1446,45663,53.0232,0.0004307,15.4642594,424.26039454144484,430.12250446784765,1 45663U 20035G   26141.92651717  .00019793  00000+0  40096-3 0  9996,2 45663  53.0232  10.5735 0004307 121.1655 238.9774 15.46425940330991
STARLINK-1448,45665,53.045,0.0007223,15.65941102,365.65895469281986,375.408084125158,1 45665U 20035J   26141.94158169  .00040463  00000+0  39250-3 0  9991,2 45665  53.0450  55.8952 0007223  49.1072 311.0567 15.65941102330357
STARLINK-1451,45668,53.0511,0.0002752,15.13324866,524.1687766215355,527.968851501595,1 45668U 20035M   26141.20020336  .00018959  00000+0  10658-2 0  9992,2 45668  53.0511  97.7788 0002752  62.5962 297.5309 15.13324866329714
STARLINK-1452,45669,53.0269,5.2e-05,15.55605667,400.0401178697157,400.74508494826205,1 45669U 20035N   26141.90669168  .00074225  00000+0  10605-2 0  9992,2 45669  53.0269  29.9848 0000520 179.4124 180.6887 15.55605667330721
STARLINK-1453,45670,53.0415,0.0002773,15.66370785,367.4282130431184,371.1703412024108,1 45670U 20035P   26141.91349304  .00046260  00000+0  44045-3 0  9996,2 45670  53.0415  16.3777 0002773 133.2845 226.8401 15.66370785330803
STARLINK-1454,45671,53.0447,0.0003195,15.64679949,372.0020196410769,376.3167370268329,1 45671U 20035Q   26141.93038140  .00039244  00000+0  40085-3 0  9996,2 45671  53.0447  56.9981 0003195  39.0610 321.0635 15.64679949330335
STARLINK-1456,45673,53.0426,0.0007088,15.62759388,374.90047677553775,384.4803729330106,1 45673U 20035S   26141.05314199  .00158907  00000+0  17056-2 0  9991,2 45673  53.0426  55.7196 0007088  88.3791 271.8034 15.62759388330295
STARLINK-1458,45675,53.0471,0.0005238,15.53732887,402.2850271215666,409.39191982757893,1 45675U 20035U   26141.80894649  .00069684  00000+0  10668-2 0  9994,2 45675  53.0471  65.4864 0005238  43.1965 316.9455 15.53732887330185
STARLINK-1460,45676,53.1584,0.0004241,15.33363395,462.88347657447775,468.6884920497723,1 45676U 20035V   26141.83536849  .00035625  00000+0  10956-2 0  9991,2 45676  53.1584  84.6790 0004241  85.0391 275.1095 15.33363395329922
STARLINK-1392,45677,53.1546,0.0003551,15.36542611,453.9154264581839,458.7692736926074,1 45677U 20035W   26141.82383009  .00036931  00000+0  10261-2 0  9999,2 45677  53.1546  83.7651 0003551  87.5262 272.6148 15.36542611329973
STARLINK-1394,45679,53.0417,0.000724,15.62532479,375.45151043399346,385.23779186485626,1 45679U 20035Y   26141.88385481  .00084936  00000+0  93075-3 0  9996,2 45679  53.0417  41.8970 0007240  97.1588 263.0249 15.62532479330559
STARLINK-1402,45685,53.0418,0.0006898,15.55726336,395.3664938340762,404.71766969527835,1 45685U 20035AE  26141.87613796  .00058863  00000+0  83963-3 0  9990,2 45685  53.0418  31.8622 0006898 115.4663 244.7062 15.55726336330701
STARLINK-1404,45686,53.1581,0.0005232,15.42390142,435.49067838640804,442.62419064268397,1 45686U 20035AF  26141.49553814  .00046960  00000+0  10733-2 0  9992,2 45686  53.1581  67.6893 0005232  98.2823 261.8777 15.42390142330170
STARLINK-1413,45689,53.1569,0.0003103,15.33366965,463.65169557648096,467.89902758807784,1 45689U 20035AJ  26141.93915357  .00028859  00000+0  89045-3 0  9998,2 45689  53.1569  68.8369 0003103 102.0564 258.0786 15.33366965330119
STARLINK-1417,45693,53.0518,0.0006296,15.15885086,513.9508299527342,522.6348143848081,1 45693U 20035AN  26141.85666788  .00021299  00000+0  11117-2 0  9990,2 45693  53.0518  81.7720 0006296  82.6962 277.4747 15.15885086329988
